{"type": "FeatureCollection", "features": [ {"type": "Feature", "properties": {"norad_id": 35033, "name": "COSMOS 2251 DEB", "group": "cosmos-2251-debris", "lat": -5.821222471599738, "lon": -169.2516717131385, "alt_km": 720.4023562115945, "timestamp": "2025-12-04T07:39:36.527600+00:00", "meta": {"OBJECT_NAME": "COSMOS 2251 DEB", "OBJECT_ID": "1993-036AGW", "EPOCH": "2025-12-01T21:46:02.380800", "MEAN_MOTION": 14.50844438, "ECCENTRICITY": 0.00143855, "INCLINATION": 74.0263, "RA_OF_ASC_NODE": 196.9584, "ARG_OF_PERICENTER": 303.7279, "MEAN_ANOMALY": 56.251, "EPHEMERIS_TYPE": 0, "CLASSIFICATION_TYPE": "U", "NORAD_CAT_ID": 35033, "ELEMENT_SET_NO": 999, "REV_AT_EPOCH": 65770, "BSTAR": 0.00069994659, "MEAN_MOTION_DOT": 2.736e-05, "MEAN_MOTION_DDOT": 0}, "tle": {"line1": "1 35033U 93036AGW 25335.90697200  .00002736  00000+0  69995-3 0  9994", "line2": "2 35033  74.0263 196.9584 0014385 303.7279  56.2510 14.50844438657707"}}, "geometry": {"type": "Point", "coordinates": [-169.2516717131385, -5.821222471599738]}}, {"type": "Feature", "properties": {"norad_id": 35037, "name": "COSMOS 2251 DEB", "group": "cosmos-2251-debris", "lat": -73.22381035427132, "lon": 46.81301209943161, "alt_km": 289.23801466601617, "timestamp": "2025-12-04T07:39:36.527610+00:00", "meta": {"OBJECT_NAME": "COSMOS 2251 DEB", "OBJECT_ID": "1993-036AHA", "EPOCH": "2025-11-07T11:23:37.197312", "MEAN_MOTION": 15.53719687, "ECCENTRICITY": 0.0010282, "INCLINATION": 73.9601, "RA_OF_ASC_NODE": 214.7185, "ARG_OF_PERICENTER": 129.4999, "MEAN_ANOMALY": 230.7127, "EPHEMERIS_TYPE": 0, "CLASSIFICATION_TYPE": "U", "NORAD_CAT_ID": 35037, "ELEMENT_SET_NO": 999, "REV_AT_EPOCH": 66656, "BSTAR": 0.0068953187, "MEAN_MOTION_DOT": 0.00469331, "MEAN_MOTION_DDOT": 0}, "tle": {"line1": "1 35037U 93036AHA 25311.47473608  .00469331  00000+0  68953-2 0  9998", "line2": "2 35037  73.9601 214.7185 0010282 129.4999 230.7127 15.53719687666563"}}, "geometry": {"type": "Point", "coordinates": [46.81301209943161, -73.22381035427132]}}, {"type": "Feature", "properties": {"norad_id": 35038, "name": "COSMOS 2251 DEB", "group": "cosmos-2251-debris", "lat": 19.580101680214362, "lon": 63.5272785986379, "alt_km": 732.9924558194216, "timestamp": "2025-12-04T07:39:36.527620+00:00", "meta": {"OBJECT_NAME": "COSMOS 2251 DEB", "OBJECT_ID": "1993-036AHB", "EPOCH": "2025-12-02T22:25:29.053056", "MEAN_MOTION": 14.25054791, "ECCENTRICITY": 0.01136239, "INCLINATION": 74.1068, "RA_OF_ASC_NODE": 60.197, "ARG_OF_PERICENTER": 46.834, "MEAN_ANOMALY": 72.6585, "EPHEMERIS_TYPE": 0, "CLASSIFICATION_TYPE": "U", "NORAD_CAT_ID": 35038, "ELEMENT_SET_NO": 999, "REV_AT_EPOCH": 85429, "BSTAR": 0.001245273, "MEAN_MOTION_DOT": 3.098e-05, "MEAN_MOTION_DDOT": 0}, "tle": {"line1": "1 35038U 93036AHB 25336.93436404  .00003098  00000+0  12453-2 0  9998", "line2": "2 35038  74.1068  60.1970 0113623  46.8340  72.6585 14.25054791854290"}}, "geometry": {"type": "Point", "coordinates": [63.5272785986379, 19.580101680214362]}}, {"type": "Feature", "properties": {"norad_id": 35043, "name": "COSMOS 2251 DEB", "group": "cosmos-2251-debris", "lat": 70.7552655319024, "lon": -173.36325003218755, "alt_km": 702.4664826530261, "timestamp": "2025-12-04T07:39:36.527629+00:00", "meta": {"OBJECT_NAME": "COSMOS 2251 DEB", "OBJECT_ID": "1993-036AHG", "EPOCH": "2025-12-01T12:30:27.515520", "MEAN_MOTION": 14.75939938, "ECCENTRICITY": 0.00983873, "INCLINATION": 73.9533, "RA_OF_ASC_NODE": 67.6713, "ARG_OF_PERICENTER": 278.6033, "MEAN_ANOMALY": 80.4003, "EPHEMERIS_TYPE": 0, "CLASSIFICATION_TYPE": "U", "NORAD_CAT_ID": 35043, "ELEMENT_SET_NO": 999, "REV_AT_EPOCH": 67253, "BSTAR": 0.0052130245, "MEAN_MOTION_DOT": 0.00038979, "MEAN_MOTION_DDOT": 0}, "tle": {"line1": "1 35043U 93036AHG 25335.52115180  .00038979  00000+0  52130-2 0  9995", "line2": "2 35043  73.9533  67.6713 0098387 278.6033  80.4003 14.75939938672537"}}, "geometry": {"type": "Point", "coordinates": [-173.36325003218755, 70.7552655319024]}}, {"type": "Feature", "properties": {"norad_id": 35045, "name": "COSMOS 2251 DEB", "group": "cosmos-2251-debris", "lat": 69.522499194969, "lon": 119.06974045797445, "alt_km": 963.4176331650342, "timestamp": "2025-12-04T07:39:36.527639+00:00", "meta": {"OBJECT_NAME": "COSMOS 2251 DEB", "OBJECT_ID": "1993-036AHJ", "EPOCH": "2025-12-03T14:08:51.275040", "MEAN_MOTION": 14.00354062, "ECCENTRICITY": 0.01831828, "INCLINATION": 73.7195, "RA_OF_ASC_NODE": 68.863, "ARG_OF_PERICENTER": 312.1661, "MEAN_ANOMALY": 46.4033, "EPHEMERIS_TYPE": 0, "CLASSIFICATION_TYPE": "U", "NORAD_CAT_ID": 35045, "ELEMENT_SET_NO": 999, "REV_AT_EPOCH": 84515, "BSTAR": 0.00089549716, "MEAN_MOTION_DOT": 1.506e-05, "MEAN_MOTION_DDOT": 0}, "tle": {"line1": "1 35045U 93036AHJ 25337.58948235  .00001506  00000+0  89550-3 0  9993", "line2": "2 35045  73.7195  68.8630 0183182 312.1661  46.4033 14.00354062845153"}}, "geometry": {"type": "Point", "coordinates": [119.06974045797445, 69.522499194969]}}, {"type": "Feature", "properties": {"norad_id": 35060, "name": "COSMOS 2251 DEB", "group": "cosmos-2251-debris", "lat": 4.918750225621358, "lon": 78.51728222015733, "alt_km": 767.9684172640646, "timestamp": "2025-12-04T07:39:36.527649+00:00", "meta": {"OBJECT_NAME": "COSMOS 2251 DEB", "OBJECT_ID": "1993-036AHP", "EPOCH": "2025-11-28T02:37:07.839264", "MEAN_MOTION": 14.41547968, "ECCENTRICITY": 0.00179641, "INCLINATION": 74.0363, "RA_OF_ASC_NODE": 271.4275, "ARG_OF_PERICENTER": 359.5881, "MEAN_ANOMALY": 0.5257, "EPHEMERIS_TYPE": 0, "CLASSIFICATION_TYPE": "U", "NORAD_CAT_ID": 35060, "ELEMENT_SET_NO": 999, "REV_AT_EPOCH": 87031, "BSTAR": 0.0004076845, "MEAN_MOTION_DOT": 1.301e-05, "MEAN_MOTION_DDOT": 0}, "tle": {"line1": "1 35060U 93036AHP 25332.10911851  .00001301  00000+0  40768-3 0  9998", "line2": "2 35060  74.0363 271.4275 0017964 359.5881   0.5257 14.41547968870310"}}, "geometry": {"type": "Point", "coordinates": [78.51728222015733, 4.918750225621358]}}, {"type": "Feature", "properties": {"norad_id": 35061, "name": "COSMOS 2251 DEB", "group": "cosmos-2251-debris", "lat": -13.921172602621647, "lon": -42.08206501771667, "alt_km": 672.5158322919124, "timestamp": "2025-12-04T07:39:36.527658+00:00", "meta": {"OBJECT_NAME": "COSMOS 2251 DEB", "OBJECT_ID": "1993-036AHQ", "EPOCH": "2025-12-03T05:33:06.011712", "MEAN_MOTION": 14.67690423, "ECCENTRICITY": 0.0038808, "INCLINATION": 74.0447, "RA_OF_ASC_NODE": 324.0838, "ARG_OF_PERICENTER": 77.8847, "MEAN_ANOMALY": 282.6667, "EPHEMERIS_TYPE": 0, "CLASSIFICATION_TYPE": "U", "NORAD_CAT_ID": 35061, "ELEMENT_SET_NO": 999, "REV_AT_EPOCH": 88435, "BSTAR": 0.0010187, "MEAN_MOTION_DOT": 5.838e-05, "MEAN_MOTION_DDOT": 0}, "tle": {"line1": "1 35061U 93036AHQ 25337.23131958  .00005838  00000+0  10187-2 0  9990", "line2": "2 35061  74.0447 324.0838 0038808  77.8847 282.6667 14.67690423884356"}}, "geometry": {"type": "Point", "coordinates": [-42.08206501771667, -13.921172602621647]}}, {"type": "Feature", "properties": {"norad_id": 35062, "name": "COSMOS 2251 DEB", "group": "cosmos-2251-debris", "lat": -37.179450895249836, "lon": 95.83907407754216, "alt_km": 901.5724131057386, "timestamp": "2025-12-04T07:39:36.527667+00:00", "meta": {"OBJECT_NAME": "COSMOS 2251 DEB", "OBJECT_ID": "1993-036AHR", "EPOCH": "2025-12-01T08:58:12.976320", "MEAN_MOTION": 14.22770227, "ECCENTRICITY": 0.01291712, "INCLINATION": 74.0782, "RA_OF_ASC_NODE": 113.6209, "ARG_OF_PERICENTER": 116.5829, "MEAN_ANOMALY": 244.8622, "EPHEMERIS_TYPE": 0, "CLASSIFICATION_TYPE": "U", "NORAD_CAT_ID": 35062, "ELEMENT_SET_NO": 999, "REV_AT_EPOCH": 85337, "BSTAR": 0.0022023834, "MEAN_MOTION_DOT": 5.359e-05, "MEAN_MOTION_DDOT": 0}, "tle": {"line1": "1 35062U 93036AHR 25335.37376130  .00005359  00000+0  22024-2 0  9998", "line2": "2 35062  74.0782 113.6209 0129171 116.5829 244.8622 14.22770227853379"}}, "geometry": {"type": "Point", "coordinates": [95.83907407754216, -37.179450895249836]}}, {"type": "Feature", "properties": {"norad_id": 35065, "name": "COSMOS 2251 DEB", "group": "cosmos-2251-debris", "lat": 36.06020360258067, "lon": -137.90232197688232, "alt_km": 730.2979343316256, "timestamp": "2025-12-04T07:39:36.527676+00:00", "meta": {"OBJECT_NAME": "COSMOS 2251 DEB", "OBJECT_ID": "1993-036AHU", "EPOCH": "2025-12-03T08:14:08.184192", "MEAN_MOTION": 14.45682076, "ECCENTRICITY": 0.0019528, "INCLINATION": 74.0203, "RA_OF_ASC_NODE": 211.8755, "ARG_OF_PERICENTER": 338.2549, "MEAN_ANOMALY": 21.7777, "EPHEMERIS_TYPE": 0, "CLASSIFICATION_TYPE": "U", "NORAD_CAT_ID": 35065, "ELEMENT_SET_NO": 999, "REV_AT_EPOCH": 68215, "BSTAR": 0.00062183, "MEAN_MOTION_DOT": 2.179e-05, "MEAN_MOTION_DDOT": 0}, "tle": {"line1": "1 35065U 93036AHU 25337.34315028  .00002179  00000+0  62183-3 0  9997", "line2": "2 35065  74.0203 211.8755 0019528 338.2549  21.7777 14.45682076682151"}}, "geometry": {"type": "Point", "coordinates": [-137.90232197688232, 36.06020360258067]}}, {"type": "Feature", "properties": {"norad_id": 35071, "name": "COSMOS 2251 DEB", "group": "cosmos-2251-debris", "lat": -46.1610870229184, "lon": 173.28136821518441, "alt_km": 598.8762842380575, "timestamp": "2025-12-04T07:39:36.527687+00:00", "meta": {"OBJECT_NAME": "COSMOS 2251 DEB", "OBJECT_ID": "1993-036AJA", "EPOCH": "2025-12-03T07:55:04.067616", "MEAN_MOTION": 15.03160044, "ECCENTRICITY": 0.0068446, "INCLINATION": 73.9314, "RA_OF_ASC_NODE": 192.7815, "ARG_OF_PERICENTER": 92.1251, "MEAN_ANOMALY": 268.7777, "EPHEMERIS_TYPE": 0, "CLASSIFICATION_TYPE": "U", "NORAD_CAT_ID": 35071, "ELEMENT_SET_NO": 999, "REV_AT_EPOCH": 67395, "BSTAR": 0.00089094, "MEAN_MOTION_DOT": 0.00012654, "MEAN_MOTION_DDOT": 0}, "tle": {"line1": "1 35071U 93036AJA 25337.32990819  .00012654  00000+0  89094-3 0  9998", "line2": "2 35071  73.9314 192.7815 0068446  92.1251 268.7777 15.03160044673954"}}, "geometry": {"type": "Point", "coordinates": [173.28136821518441, -46.1610870229184]}}]}